[{"OBJECT_NAME":"ONEWEB-0184","OBJECT_ID":"2021-031B","EPOCH":"2026-05-01T04:29:47.668992","MEAN_MOTION":13.14502948,"ECCENTRICITY":0.0001842,"INCLINATION":87.8937,"RA_OF_ASC_NODE":299.0751,"ARG_OF_PERICENTER":65.1279,"MEAN_ANOMALY":295.0043,"EPHEMERIS_TYPE":0,"CLASSIFICATION_TYPE":"U","NORAD_CAT_ID":48211,"ELEMENT_SET_NO":999,"REV_AT_EPOCH":24211,"BSTAR":0.0003992,"MEAN_MOTION_DOT":1.61e-06,"MEAN_MOTION_DDOT":0.0},{"OBJECT_NAME":"ONEWEB-0179","OBJECT_ID":"2021-031C","EPOCH":"2026-05-01T08:00:01.999872","MEAN_MOTION":14.00949251,"ECCENTRICITY":0.0122166,"INCLINATION":87.8934,"RA_OF_ASC_NODE":298.1975,"ARG_OF_PERICENTER":48.2434,"MEAN_ANOMALY":127.6183,"EPHEMERIS_TYPE":0,"CLASSIFICATION_TYPE":"U","NORAD_CAT_ID":48212,"ELEMENT_SET_NO":999,"REV_AT_EPOCH":536,"BSTAR":0.1694,"MEAN_MOTION_DOT":0.00280536,"MEAN_MOTION_DDOT":0.0},{"OBJECT_NAME":"ONEWEB-0180","OBJECT_ID":"2021-031D","EPOCH":"2026-05-01T04:34:22.112544","MEAN_MOTION":13.14496595,"ECCENTRICITY":0.0001394,"INCLINATION":87.8925,"RA_OF_ASC_NODE":299.0738,"ARG_OF_PERICENTER":88.1354,"MEAN_ANOMALY":271.9935,"EPHEMERIS_TYPE":0,"CLASSIFICATION_TYPE":"U","NORAD_CAT_ID":48213,"ELEMENT_SET_NO":999,"REV_AT_EPOCH":24204,"BSTAR":0.0030622,"MEAN_MOTION_DOT":1.148e-05,"MEAN_MOTION_DDOT":0.0},{"OBJECT_NAME":"ONEWEB-0218","OBJECT_ID":"2021-031E","EPOCH":"2026-05-01T05:06:19.528128","MEAN_MOTION":13.14503197,"ECCENTRICITY":0.0001544,"INCLINATION":87.8929,"RA_OF_ASC_NODE":299.0675,"ARG_OF_PERICENTER":61.4658,"MEAN_ANOMALY":298.6627,"EPHEMERIS_TYPE":0,"CLASSIFICATION_TYPE":"U","NORAD_CAT_ID":48214,"ELEMENT_SET_NO":999,"REV_AT_EPOCH":24220,"BSTAR":-0.00068826,"MEAN_MOTION_DOT":-2.42e-06,"MEAN_MOTION_DDOT":0.0},{"OBJECT_NAME":"ONEWEB-0209","OBJECT_ID":"2021-031F","EPOCH":"2026-05-01T04:50:21.415200","MEAN_MOTION":13.14502669,"ECCENTRICITY":0.0001522,"INCLINATION":87.8917,"RA_OF_ASC_NODE":299.0915,"ARG_OF_PERICENTER":94.4631,"MEAN_ANOMALY":265.6672,"EPHEMERIS_TYPE":0,"CLASSIFICATION_TYPE":"U","NORAD_CAT_ID":48215,"ELEMENT_SET_NO":999,"REV_AT_EPOCH":24220,"BSTAR":-0.00030261,"MEAN_MOTION_DOT":-9.9e-07,"MEAN_MOTION_DDOT":0.0},{"OBJECT_NAME":"ONEWEB-0198","OBJECT_ID":"2021-031G","EPOCH":"2026-05-01T04:27:42.600672","MEAN_MOTION":13.1450291,"ECCENTRICITY":0.0001363,"INCLINATION":87.8917,"RA_OF_ASC_NODE":299.0953,"ARG_OF_PERICENTER":81.7101,"MEAN_ANOMALY":278.4183,"EPHEMERIS_TYPE":0,"CLASSIFICATION_TYPE":"U","NORAD_CAT_ID":48216,"ELEMENT_SET_NO":999,"REV_AT_EPOCH":24231,"BSTAR":0.0006361,"MEAN_MOTION_DOT":2.49e-06,"MEAN_MOTION_DDOT":0.0},{"OBJECT_NAME":"ONEWEB-0189","OBJECT_ID":"2021-031H","EPOCH":"2026-05-01T01:06:33.681024","MEAN_MOTION":13.14502991,"ECCENTRICITY":0.0001464,"INCLINATION":87.8927,"RA_OF_ASC_NODE":299.1037,"ARG_OF_PERICENTER":83.5164,"MEAN_ANOMALY":276.6132,"EPHEMERIS_TYPE":0,"CLASSIFICATION_TYPE":"U","NORAD_CAT_ID":48217,"ELEMENT_SET_NO":999,"REV_AT_EPOCH":24203,"BSTAR":-0.00024675,"MEAN_MOTION_DOT":-7.9e-07,"MEAN_MOTION_DDOT":0.0},{"OBJECT_NAME":"ONEWEB-0196","OBJECT_ID":"2021-031J","EPOCH":"2026-05-01T06:03:24.918336","MEAN_MOTION":13.14503964,"ECCENTRICITY":0.0001565,"INCLINATION":87.8926,"RA_OF_ASC_NODE":299.0729,"ARG_OF_PERICENTER":89.9889,"MEAN_ANOMALY":270.142,"EPHEMERIS_TYPE":0,"CLASSIFICATION_TYPE":"U","NORAD_CAT_ID":48218,"ELEMENT_SET_NO":999,"REV_AT_EPOCH":24206,"BSTAR":0.0005191200000000001,"MEAN_MOTION_DOT":2.05e-06,"MEAN_MOTION_DDOT":0.0},{"OBJECT_NAME":"ONEWEB-0183","OBJECT_ID":"2021-031K","EPOCH":"2026-05-01T05:26:52.425024","MEAN_MOTION":13.14503661,"ECCENTRICITY":0.0001737,"INCLINATION":87.8924,"RA_OF_ASC_NODE":299.0767,"ARG_OF_PERICENTER":100.5333,"MEAN_ANOMALY":259.5992,"EPHEMERIS_TYPE":0,"CLASSIFICATION_TYPE":"U","NORAD_CAT_ID":48219,"ELEMENT_SET_NO":999,"REV_AT_EPOCH":24215,"BSTAR":-8.089300000000001e-05,"MEAN_MOTION_DOT":-1.7e-07,"MEAN_MOTION_DDOT":0.0},{"OBJECT_NAME":"ONEWEB-0185","OBJECT_ID":"2021-031L","EPOCH":"2026-05-01T06:04:33.976128","MEAN_MOTION":13.14503331,"ECCENTRICITY":0.0001475,"INCLINATION":87.8935,"RA_OF_ASC_NODE":299.0609,"ARG_OF_PERICENTER":104.2307,"MEAN_ANOMALY":255.8986,"EPHEMERIS_TYPE":0,"CLASSIFICATION_TYPE":"U","NORAD_CAT_ID":48220,"ELEMENT_SET_NO":999,"REV_AT_EPOCH":24208,"BSTAR":0.00042330000000000004,"MEAN_MOTION_DOT":1.7e-06,"MEAN_MOTION_DDOT":0.0},{"OBJECT_NAME":"ONEWEB-0187","OBJECT_ID":"2021-031M","EPOCH":"2026-05-01T05:35:49.590240","MEAN_MOTION":13.14503093,"ECCENTRICITY":0.0001498,"INCLINATION":87.8912,"RA_OF_ASC_NODE":299.0885,"ARG_OF_PERICENTER":94.4335,"MEAN_ANOMALY":265.6966,"EPHEMERIS_TYPE":0,"CLASSIFICATION_TYPE":"U","NORAD_CAT_ID":48221,"ELEMENT_SET_NO":999,"REV_AT_EPOCH":24209,"BSTAR":4.4338e-05,"MEAN_MOTION_DOT":2.9e-07,"MEAN_MOTION_DDOT":0.0},{"OBJECT_NAME":"ONEWEB-0192","OBJECT_ID":"2021-031N","EPOCH":"2026-05-01T04:52:38.093088","MEAN_MOTION":13.14503007,"ECCENTRICITY":0.0001707,"INCLINATION":87.8914,"RA_OF_ASC_NODE":299.0829,"ARG_OF_PERICENTER":89.1492,"MEAN_ANOMALY":270.9833,"EPHEMERIS_TYPE":0,"CLASSIFICATION_TYPE":"U","NORAD_CAT_ID":48222,"ELEMENT_SET_NO":999,"REV_AT_EPOCH":24200,"BSTAR":-0.0002863,"MEAN_MOTION_DOT":-9.3e-07,"MEAN_MOTION_DDOT":0.0},{"OBJECT_NAME":"ONEWEB-0219","OBJECT_ID":"2021-031P","EPOCH":"2026-05-01T06:12:32.494752","MEAN_MOTION":13.1450139,"ECCENTRICITY":0.0001508,"INCLINATION":87.8923,"RA_OF_ASC_NODE":299.0627,"ARG_OF_PERICENTER":96.6985,"MEAN_ANOMALY":263.4316,"EPHEMERIS_TYPE":0,"CLASSIFICATION_TYPE":"U","NORAD_CAT_ID":48223,"ELEMENT_SET_NO":999,"REV_AT_EPOCH":24221,"BSTAR":0.00035208,"MEAN_MOTION_DOT":1.43e-06,"MEAN_MOTION_DDOT":0.0},{"OBJECT_NAME":"ONEWEB-0202","OBJECT_ID":"2021-031Q","EPOCH":"2026-05-01T05:45:07.485408","MEAN_MOTION":13.14504764,"ECCENTRICITY":0.000153,"INCLINATION":87.8926,"RA_OF_ASC_NODE":299.0767,"ARG_OF_PERICENTER":69.1824,"MEAN_ANOMALY":290.9469,"EPHEMERIS_TYPE":0,"CLASSIFICATION_TYPE":"U","NORAD_CAT_ID":48224,"ELEMENT_SET_NO":999,"REV_AT_EPOCH":24219,"BSTAR":0.00028073999999999997,"MEAN_MOTION_DOT":1.17e-06,"MEAN_MOTION_DDOT":0.0},{"OBJECT_NAME":"ONEWEB-0204","OBJECT_ID":"2021-031R","EPOCH":"2026-05-01T01:05:24.617184","MEAN_MOTION":13.14503464,"ECCENTRICITY":0.0001747,"INCLINATION":87.8928,"RA_OF_ASC_NODE":299.1101,"ARG_OF_PERICENTER":102.2921,"MEAN_ANOMALY":257.8405,"EPHEMERIS_TYPE":0,"CLASSIFICATION_TYPE":"U","NORAD_CAT_ID":48225,"ELEMENT_SET_NO":999,"REV_AT_EPOCH":24206,"BSTAR":-0.00023173,"MEAN_MOTION_DOT":-7.3e-07,"MEAN_MOTION_DDOT":0.0},{"OBJECT_NAME":"ONEWEB-0205","OBJECT_ID":"2021-031S","EPOCH":"2026-05-01T05:58:50.713248","MEAN_MOTION":13.14504089,"ECCENTRICITY":0.000156,"INCLINATION":87.893,"RA_OF_ASC_NODE":299.0608,"ARG_OF_PERICENTER":95.8778,"MEAN_ANOMALY":264.2529,"EPHEMERIS_TYPE":0,"CLASSIFICATION_TYPE":"U","NORAD_CAT_ID":48226,"ELEMENT_SET_NO":999,"REV_AT_EPOCH":24210,"BSTAR":0.0007476500000000001,"MEAN_MOTION_DOT":2.9e-06,"MEAN_MOTION_DDOT":0.0}]