ONEWEB-0184             
1 48211U 21031B   26121.18735728  .00000161  00000+0  39920-3 0  9999
2 48211  87.8937 299.0751 0001842  65.1279 295.0043 13.14502948242118
ONEWEB-0179             
1 48212U 21031C   26121.33335648  .00280536  00000+0  16940+0 0  9993
2 48212  87.8934 298.1975 0122166  48.2434 127.6183 14.00949251  5369
ONEWEB-0180             
1 48213U 21031D   26121.19053371  .00001148  00000+0  30622-2 0  9994
2 48213  87.8925 299.0738 0001394  88.1354 271.9935 13.14496595242048
ONEWEB-0218             
1 48214U 21031E   26121.21272602 -.00000242  00000+0 -68826-3 0  9992
2 48214  87.8929 299.0675 0001544  61.4658 298.6627 13.14503197242200
ONEWEB-0209             
1 48215U 21031F   26121.20163675 -.00000099  00000+0 -30261-3 0  9993
2 48215  87.8917 299.0915 0001522  94.4631 265.6672 13.14502669242205
ONEWEB-0198             
1 48216U 21031G   26121.18590973  .00000249  00000+0  63610-3 0  9995
2 48216  87.8917 299.0953 0001363  81.7101 278.4183 13.14502910242312
ONEWEB-0189             
1 48217U 21031H   26121.04622316 -.00000079  00000+0 -24675-3 0  9999
2 48217  87.8927 299.1037 0001464  83.5164 276.6132 13.14502991242031
ONEWEB-0196             
1 48218U 21031J   26121.25237174  .00000205  00000+0  51912-3 0  9990
2 48218  87.8926 299.0729 0001565  89.9889 270.1420 13.14503964242067
ONEWEB-0183             
1 48219U 21031K   26121.22699566 -.00000017  00000+0 -80893-4 0  9999
2 48219  87.8924 299.0767 0001737 100.5333 259.5992 13.14503661242152
ONEWEB-0185             
1 48220U 21031L   26121.25317102  .00000170  00000+0  42330-3 0  9998
2 48220  87.8935 299.0609 0001475 104.2307 255.8986 13.14503331242080
ONEWEB-0187             
1 48221U 21031M   26121.23321285  .00000029  00000+0  44338-4 0  9998
2 48221  87.8912 299.0885 0001498  94.4335 265.6966 13.14503093242091
ONEWEB-0192             
1 48222U 21031N   26121.20321867 -.00000093  00000+0 -28630-3 0  9991
2 48222  87.8914 299.0829 0001707  89.1492 270.9833 13.14503007242008
ONEWEB-0219             
1 48223U 21031P   26121.25870943  .00000143  00000+0  35208-3 0  9994
2 48223  87.8923 299.0627 0001508  96.6985 263.4316 13.14501390242213
ONEWEB-0202             
1 48224U 21031Q   26121.23966997  .00000117  00000+0  28074-3 0  9992
2 48224  87.8926 299.0767 0001530  69.1824 290.9469 13.14504764242193
ONEWEB-0204             
1 48225U 21031R   26121.04542381 -.00000073  00000+0 -23173-3 0  9997
2 48225  87.8928 299.1101 0001747 102.2921 257.8405 13.14503464242060
ONEWEB-0205             
1 48226U 21031S   26121.24919807  .00000290  00000+0  74765-3 0  9993
2 48226  87.8930 299.0608 0001560  95.8778 264.2529 13.14504089242103
